{
  "type": "FeatureCollection",
  "features": [
    {
      "type": "Feature",
      "properties": {
        "norad_id": 58701,
        "name": "TIANMU-1 16",
        "group": "weather",
        "lat": -82.53561098025973,
        "lon": -89.38715476891413,
        "alt_km": 496.9007971496949,
        "timestamp": "2025-12-27T04:40:45.143236+00:00",
        "meta_object_name": "TIANMU-1 16",
        "meta_object_id": "2024-004B",
        "meta_epoch": "2025-12-26T22:46:19.446816",
        "meta_mean_motion": 15.24625956,
        "meta_eccentricity": 0.00044734,
        "meta_inclination": 97.4571,
        "meta_ra_of_asc_node": 181.7426,
        "meta_arg_of_pericenter": 231.3751,
        "meta_mean_anomaly": 128.7087,
        "meta_ephemeris_type": 0,
        "meta_classification_type": "U",
        "meta_norad_cat_id": 58701,
        "meta_element_set_no": 999,
        "meta_rev_at_epoch": 10951,
        "meta_bstar": 0.0003111739,
        "meta_mean_motion_dot": 7.61e-05,
        "meta_mean_motion_ddot": 0,
        "tle_line1": "1 58701U 24004B   25360.94883619  .00007610  00000+0  31117-3 0  9994",
        "tle_line2": "2 58701  97.4571 181.7426 0004473 231.3751 128.7087 15.24625956109519"
      },
      "geometry": {
        "type": "Point",
        "coordinates": [
          -89.38715476891413,
          -82.53561098025973
        ]
      }
    },
    {
      "type": "Feature",
      "properties": {
        "norad_id": 58702,
        "name": "TIANMU-1 17",
        "group": "weather",
        "lat": -3.152437026602383,
        "lon": -177.18137052834484,
        "alt_km": 496.73660137417755,
        "timestamp": "2025-12-27T04:40:45.143249+00:00",
        "meta_object_name": "TIANMU-1 17",
        "meta_object_id": "2024-004C",
        "meta_epoch": "2025-12-26T23:58:03.961344",
        "meta_mean_motion": 15.24670731,
        "meta_eccentricity": 0.00036498,
        "meta_inclination": 97.4605,
        "meta_ra_of_asc_node": 182.2096,
        "meta_arg_of_pericenter": 231.5663,
        "meta_mean_anomaly": 128.5248,
        "meta_ephemeris_type": 0,
        "meta_classification_type": "U",
        "meta_norad_cat_id": 58702,
        "meta_element_set_no": 999,
        "meta_rev_at_epoch": 10951,
        "meta_bstar": 0.00035242247,
        "meta_mean_motion_dot": 8.64e-05,
        "meta_mean_motion_ddot": 0,
        "tle_line1": "1 58702U 24004C   25360.99865696  .00008640  00000+0  35242-3 0  9992",
        "tle_line2": "2 58702  97.4605 182.2096 0003649 231.5663 128.5248 15.24670731109513"
      },
      "geometry": {
        "type": "Point",
        "coordinates": [
          -177.18137052834484,
          -3.152437026602383
        ]
      }
    },
    {
      "type": "Feature",
      "properties": {
        "norad_id": 58703,
        "name": "TIANMU-1 18",
        "group": "weather",
        "lat": 82.16230701040982,
        "lon": 110.39064853571176,
        "alt_km": 485.9504934091301,
        "timestamp": "2025-12-27T04:40:45.143260+00:00",
        "meta_object_name": "TIANMU-1 18",
        "meta_object_id": "2024-004D",
        "meta_epoch": "2025-12-26T23:34:14.767968",
        "meta_mean_motion": 15.24652875,
        "meta_eccentricity": 0.00030538,
        "meta_inclination": 97.4622,
        "meta_ra_of_asc_node": 182.3915,
        "meta_arg_of_pericenter": 227.6646,
        "meta_mean_anomaly": 132.4333,
        "meta_ephemeris_type": 0,
        "meta_classification_type": "U",
        "meta_norad_cat_id": 58703,
        "meta_element_set_no": 999,
        "meta_rev_at_epoch": 10951,
        "meta_bstar": 0.00034067303,
        "meta_mean_motion_dot": 8.344e-05,
        "meta_mean_motion_ddot": 0,
        "tle_line1": "1 58703U 24004D   25360.98211537  .00008344  00000+0  34067-3 0  9996",
        "tle_line2": "2 58703  97.4622 182.3915 0003053 227.6646 132.4333 15.24652875109518"
      },
      "geometry": {
        "type": "Point",
        "coordinates": [
          110.39064853571176,
          82.16230701040982
        ]
      }
    },
    {
      "type": "Feature",
      "properties": {
        "norad_id": 58990,
        "name": "INSAT-3DS",
        "group": "weather",
        "lat": 0.0158394231493819,
        "lon": -111.79219535371284,
        "alt_km": 35781.326021945984,
        "timestamp": "2025-12-27T04:40:45.143271+00:00",
        "meta_object_name": "INSAT-3DS",
        "meta_object_id": "2024-033A",
        "meta_epoch": "2025-12-26T22:27:50.907168",
        "meta_mean_motion": 1.00270784,
        "meta_eccentricity": 0.00013651,
        "meta_inclination": 0.0642,
        "meta_ra_of_asc_node": 98.7503,
        "meta_arg_of_pericenter": 178.6019,
        "meta_mean_anomaly": 237.3902,
        "meta_ephemeris_type": 0,
        "meta_classification_type": "U",
        "meta_norad_cat_id": 58990,
        "meta_element_set_no": 999,
        "meta_rev_at_epoch": 4534,
        "meta_bstar": 0,
        "meta_mean_motion_dot": -1.34e-06,
        "meta_mean_motion_ddot": 0,
        "tle_line1": "1 58990U 24033A   25360.93600587 -.00000134  00000+0  00000+0 0  9994",
        "tle_line2": "2 58990   0.0642  98.7503 0001365 178.6019 237.3902  1.00270784 45345"
      },
      "geometry": {
        "type": "Point",
        "coordinates": [
          -111.79219535371284,
          0.0158394231493819
        ]
      }
    },
    {
      "type": "Feature",
      "properties": {
        "norad_id": 59051,
        "name": "METEOR-M2 4",
        "group": "weather",
        "lat": -4.638773602983312,
        "lon": -41.41136785823958,
        "alt_km": 817.293534561305,
        "timestamp": "2025-12-27T04:40:45.143282+00:00",
        "meta_object_name": "METEOR-M2 4",
        "meta_object_id": "2024-039A",
        "meta_epoch": "2025-12-26T23:38:11.311296",
        "meta_mean_motion": 14.22403537,
        "meta_eccentricity": 0.00063207,
        "meta_inclination": 98.6787,
        "meta_ra_of_asc_node": 317.6717,
        "meta_arg_of_pericenter": 315.2621,
        "meta_mean_anomaly": 44.8047,
        "meta_ephemeris_type": 0,
        "meta_classification_type": "U",
        "meta_norad_cat_id": 59051,
        "meta_element_set_no": 999,
        "meta_rev_at_epoch": 9478,
        "meta_bstar": 4.6730788e-05,
        "meta_mean_motion_dot": 6e-07,
        "meta_mean_motion_ddot": 0,
        "tle_line1": "1 59051U 24039A   25360.98485314  .00000060  00000+0  46731-4 0  9996",
        "tle_line2": "2 59051  98.6787 317.6717 0006320 315.2621  44.8047 14.22403537 94786"
      },
      "geometry": {
        "type": "Point",
        "coordinates": [
          -41.41136785823958,
          -4.638773602983312
        ]
      }
    },
    {
      "type": "Feature",
      "properties": {
        "norad_id": 60133,
        "name": "GOES 19",
        "group": "weather",
        "lat": 0.01086901767181968,
        "lon": 90.91517275590921,
        "alt_km": 35790.46472107132,
        "timestamp": "2025-12-27T04:40:45.143295+00:00",
        "meta_object_name": "GOES 19",
        "meta_object_id": "2024-119A",
        "meta_epoch": "2025-12-26T12:35:56.409216",
        "meta_mean_motion": 1.00266665,
        "meta_eccentricity": 9.47e-05,
        "meta_inclination": 0.0307,
        "meta_ra_of_asc_node": 217.6802,
        "meta_arg_of_pericenter": 97.1965,
        "meta_mean_anomaly": 254.1873,
        "meta_ephemeris_type": 0,
        "meta_classification_type": "U",
        "meta_norad_cat_id": 60133,
        "meta_element_set_no": 999,
        "meta_rev_at_epoch": 523,
        "meta_bstar": 0,
        "meta_mean_motion_dot": -2.26e-06,
        "meta_mean_motion_ddot": 0,
        "tle_line1": "1 60133U 24119A   25360.52495844 -.00000226  00000+0  00000+0 0  9996",
        "tle_line2": "2 60133   0.0307 217.6802 0000947  97.1965 254.1873  1.00266665  5230"
      },
      "geometry": {
        "type": "Point",
        "coordinates": [
          90.91517275590921,
          0.01086901767181968
        ]
      }
    },
    {
      "type": "Feature",
      "properties": {
        "norad_id": 65815,
        "name": "FENGYUN 3H",
        "group": "weather",
        "lat": 73.08643794224562,
        "lon": 150.55288701722372,
        "alt_km": 817.9983510745578,
        "timestamp": "2025-12-27T04:40:45.143306+00:00",
        "meta_object_name": "FENGYUN 3H",
        "meta_object_id": "2025-219A",
        "meta_epoch": "2025-12-26T21:25:25.718592",
        "meta_mean_motion": 14.19908581,
        "meta_eccentricity": 8.745e-05,
        "meta_inclination": 98.6603,
        "meta_ra_of_asc_node": 300.1769,
        "meta_arg_of_pericenter": 109.9836,
        "meta_mean_anomaly": 250.1435,
        "meta_ephemeris_type": 0,
        "meta_classification_type": "U",
        "meta_norad_cat_id": 65815,
        "meta_element_set_no": 999,
        "meta_rev_at_epoch": 1293,
        "meta_bstar": 7.8012117e-05,
        "meta_mean_motion_dot": 1.22e-06,
        "meta_mean_motion_ddot": 0,
        "tle_line1": "1 65815U 25219A   25360.89265878  .00000122  00000+0  78012-4 0  9999",
        "tle_line2": "2 65815  98.6603 300.1769 0000874 109.9836 250.1435 14.19908581 12931"
      },
      "geometry": {
        "type": "Point",
        "coordinates": [
          150.55288701722372,
          73.08643794224562
        ]
      }
    }
  ]
}